{"type": "FeatureCollection", "features": [ {"type": "Feature", "properties": {"norad_id": 34683, "name": "COSMOS 2251 DEB", "group": "cosmos-2251-debris", "lat": -7.470606615231221, "lon": -93.7403338525341, "alt_km": 669.6499768295516, "timestamp": "2025-12-16T23:36:36.592983+00:00", "meta": {"OBJECT_NAME": "COSMOS 2251 DEB", "OBJECT_ID": "1993-036YD", "EPOCH": "2025-12-16T06:30:11.898720", "MEAN_MOTION": 14.64537018, "ECCENTRICITY": 0.00180001, "INCLINATION": 74.0296, "RA_OF_ASC_NODE": 85.4775, "ARG_OF_PERICENTER": 200.5516, "MEAN_ANOMALY": 190.6422, "EPHEMERIS_TYPE": 0, "CLASSIFICATION_TYPE": "U", "NORAD_CAT_ID": 34683, "ELEMENT_SET_NO": 999, "REV_AT_EPOCH": 88400, "BSTAR": 0.00087690768, "MEAN_MOTION_DOT": 4.634e-05, "MEAN_MOTION_DDOT": 0}, "tle": {"line1": "1 34683U 93036YD  25350.27097105  .00004634  00000+0  87691-3 0  9991", "line2": "2 34683  74.0296  85.4775 0018000 200.5516 190.6422 14.64537018884001"}}, "geometry": {"type": "Point", "coordinates": [-93.7403338525341, -7.470606615231221]}}, {"type": "Feature", "properties": {"norad_id": 34685, "name": "COSMOS 2251 DEB", "group": "cosmos-2251-debris", "lat": -48.986417698574364, "lon": -20.060415721673113, "alt_km": 697.7767530044339, "timestamp": "2025-12-16T23:36:36.592993+00:00", "meta": {"OBJECT_NAME": "COSMOS 2251 DEB", "OBJECT_ID": "1993-036YF", "EPOCH": "2025-12-16T05:14:10.519584", "MEAN_MOTION": 14.57540541, "ECCENTRICITY": 0.00142871, "INCLINATION": 74.0286, "RA_OF_ASC_NODE": 142.1684, "ARG_OF_PERICENTER": 246.5072, "MEAN_ANOMALY": 289.6947, "EPHEMERIS_TYPE": 0, "CLASSIFICATION_TYPE": "U", "NORAD_CAT_ID": 34685, "ELEMENT_SET_NO": 999, "REV_AT_EPOCH": 88582, "BSTAR": 0.0007718925, "MEAN_MOTION_DOT": 3.488e-05, "MEAN_MOTION_DDOT": 0}, "tle": {"line1": "1 34685U 93036YF  25350.21817731  .00003488  00000+0  77189-3 0  9999", "line2": "2 34685  74.0286 142.1684 0014287 246.5072 289.6947 14.57540541885821"}}, "geometry": {"type": "Point", "coordinates": [-20.060415721673113, -48.986417698574364]}}, {"type": "Feature", "properties": {"norad_id": 34689, "name": "COSMOS 2251 DEB", "group": "cosmos-2251-debris", "lat": -13.140777617171471, "lon": -147.8056439139123, "alt_km": 803.1973042742566, "timestamp": "2025-12-16T23:36:36.593003+00:00", "meta": {"OBJECT_NAME": "COSMOS 2251 DEB", "OBJECT_ID": "1993-036YK", "EPOCH": "2025-12-15T15:20:16.539648", "MEAN_MOTION": 14.04491905, "ECCENTRICITY": 0.02275051, "INCLINATION": 74.0901, "RA_OF_ASC_NODE": 218.3502, "ARG_OF_PERICENTER": 286.6099, "MEAN_ANOMALY": 101.262, "EPHEMERIS_TYPE": 0, "CLASSIFICATION_TYPE": "U", "NORAD_CAT_ID": 34689, "ELEMENT_SET_NO": 999, "REV_AT_EPOCH": 84382, "BSTAR": 0.0020174062, "MEAN_MOTION_DOT": 4.031e-05, "MEAN_MOTION_DDOT": 0}, "tle": {"line1": "1 34689U 93036YK  25349.63908032  .00004031  00000+0  20174-2 0  9998", "line2": "2 34689  74.0901 218.3502 0227505 286.6099 101.2620 14.04491905843829"}}, "geometry": {"type": "Point", "coordinates": [-147.8056439139123, -13.140777617171471]}}, {"type": "Feature", "properties": {"norad_id": 34721, "name": "COSMOS 2251 DEB", "group": "cosmos-2251-debris", "lat": -70.1237893651822, "lon": -168.20557551861717, "alt_km": 748.8572471492489, "timestamp": "2025-12-16T23:36:36.593013+00:00", "meta": {"OBJECT_NAME": "COSMOS 2251 DEB", "OBJECT_ID": "1993-036YP", "EPOCH": "2025-12-16T05:15:40.510368", "MEAN_MOTION": 13.96869187, "ECCENTRICITY": 0.0223437, "INCLINATION": 73.9231, "RA_OF_ASC_NODE": 320.212, "ARG_OF_PERICENTER": 258.5426, "MEAN_ANOMALY": 116.3735, "EPHEMERIS_TYPE": 0, "CLASSIFICATION_TYPE": "U", "NORAD_CAT_ID": 34721, "ELEMENT_SET_NO": 999, "REV_AT_EPOCH": 85198, "BSTAR": 0.00096429819, "MEAN_MOTION_DOT": 1.631e-05, "MEAN_MOTION_DDOT": 0}, "tle": {"line1": "1 34721U 93036YP  25350.21921887  .00001631  00000+0  96430-3 0  9996", "line2": "2 34721  73.9231 320.2120 0223437 258.5426 116.3735 13.96869187851982"}}, "geometry": {"type": "Point", "coordinates": [-168.20557551861717, -70.1237893651822]}}, {"type": "Feature", "properties": {"norad_id": 34722, "name": "COSMOS 2251 DEB", "group": "cosmos-2251-debris", "lat": -4.115717795477884, "lon": -32.6946133906825, "alt_km": 880.0503273413351, "timestamp": "2025-12-16T23:36:36.593023+00:00", "meta": {"OBJECT_NAME": "COSMOS 2251 DEB", "OBJECT_ID": "1993-036YQ", "EPOCH": "2025-12-16T05:00:13.466880", "MEAN_MOTION": 14.11946282, "ECCENTRICITY": 0.01669495, "INCLINATION": 73.873, "RA_OF_ASC_NODE": 329.8804, "ARG_OF_PERICENTER": 254.8406, "MEAN_ANOMALY": 119.9542, "EPHEMERIS_TYPE": 0, "CLASSIFICATION_TYPE": "U", "NORAD_CAT_ID": 34722, "ELEMENT_SET_NO": 999, "REV_AT_EPOCH": 86294, "BSTAR": 0.00066061762, "MEAN_MOTION_DOT": 1.351e-05, "MEAN_MOTION_DDOT": 0}, "tle": {"line1": "1 34722U 93036YQ  25350.20848920  .00001351  00000+0  66062-3 0  9999", "line2": "2 34722  73.8730 329.8804 0166949 254.8406 119.9542 14.11946282862944"}}, "geometry": {"type": "Point", "coordinates": [-32.6946133906825, -4.115717795477884]}}, {"type": "Feature", "properties": {"norad_id": 34726, "name": "COSMOS 2251 DEB", "group": "cosmos-2251-debris", "lat": 26.1360650302261, "lon": -13.69341398793412, "alt_km": 698.757139063564, "timestamp": "2025-12-16T23:36:36.593033+00:00", "meta": {"OBJECT_NAME": "COSMOS 2251 DEB", "OBJECT_ID": "1993-036YU", "EPOCH": "2025-12-16T02:05:56.915520", "MEAN_MOTION": 14.5949553, "ECCENTRICITY": 0.00418666, "INCLINATION": 74.0287, "RA_OF_ASC_NODE": 339.9373, "ARG_OF_PERICENTER": 129.6944, "MEAN_ANOMALY": 230.7925, "EPHEMERIS_TYPE": 0, "CLASSIFICATION_TYPE": "U", "NORAD_CAT_ID": 34726, "ELEMENT_SET_NO": 999, "REV_AT_EPOCH": 88551, "BSTAR": 0.00030944594, "MEAN_MOTION_DOT": 1.457e-05, "MEAN_MOTION_DDOT": 0}, "tle": {"line1": "1 34726U 93036YU  25350.08746430  .00001457  00000+0  30945-3 0  9990", "line2": "2 34726  74.0287 339.9373 0041866 129.6944 230.7925 14.59495530885519"}}, "geometry": {"type": "Point", "coordinates": [-13.69341398793412, 26.1360650302261]}}, {"type": "Feature", "properties": {"norad_id": 34728, "name": "COSMOS 2251 DEB", "group": "cosmos-2251-debris", "lat": 71.12151393365583, "lon": -59.533911089637655, "alt_km": 628.7230495206795, "timestamp": "2025-12-16T23:36:36.593043+00:00", "meta": {"OBJECT_NAME": "COSMOS 2251 DEB", "OBJECT_ID": "1993-036YW", "EPOCH": "2025-12-15T09:42:26.371296", "MEAN_MOTION": 14.70875036, "ECCENTRICITY": 0.00411739, "INCLINATION": 74.0173, "RA_OF_ASC_NODE": 246.5897, "ARG_OF_PERICENTER": 43.4858, "MEAN_ANOMALY": 316.9547, "EPHEMERIS_TYPE": 0, "CLASSIFICATION_TYPE": "U", "NORAD_CAT_ID": 34728, "ELEMENT_SET_NO": 999, "REV_AT_EPOCH": 88839, "BSTAR": 0.00050694603, "MEAN_MOTION_DOT": 3.111e-05, "MEAN_MOTION_DDOT": 0}, "tle": {"line1": "1 34728U 93036YW  25349.40447189  .00003111  00000+0  50695-3 0  9998", "line2": "2 34728  74.0173 246.5897 0041173  43.4858 316.9547 14.70875036888399"}}, "geometry": {"type": "Point", "coordinates": [-59.533911089637655, 71.12151393365583]}}, {"type": "Feature", "properties": {"norad_id": 34729, "name": "COSMOS 2251 DEB", "group": "cosmos-2251-debris", "lat": -72.85750669374572, "lon": -78.28093215121626, "alt_km": 635.2199995544725, "timestamp": "2025-12-16T23:36:36.593053+00:00", "meta": {"OBJECT_NAME": "COSMOS 2251 DEB", "OBJECT_ID": "1993-036YX", "EPOCH": "2025-12-16T01:34:25.857120", "MEAN_MOTION": 14.82896853, "ECCENTRICITY": 0.00118196, "INCLINATION": 74.0178, "RA_OF_ASC_NODE": 351.8419, "ARG_OF_PERICENTER": 108.7967, "MEAN_ANOMALY": 307.8347, "EPHEMERIS_TYPE": 0, "CLASSIFICATION_TYPE": "U", "NORAD_CAT_ID": 34729, "ELEMENT_SET_NO": 999, "REV_AT_EPOCH": 88507, "BSTAR": 0.0012502232, "MEAN_MOTION_DOT": 0.00010129, "MEAN_MOTION_DDOT": 0}, "tle": {"line1": "1 34729U 93036YX  25350.06557705  .00010129  00000+0  12502-2 0  9990", "line2": "2 34729  74.0178 351.8419 0011819 108.7967 307.8347 14.82896853885077"}}, "geometry": {"type": "Point", "coordinates": [-78.28093215121626, -72.85750669374572]}}, {"type": "Feature", "properties": {"norad_id": 34732, "name": "COSMOS 2251 DEB", "group": "cosmos-2251-debris", "lat": -38.410756321865705, "lon": 72.14631907563111, "alt_km": 737.6412943485511, "timestamp": "2025-12-16T23:36:36.593063+00:00", "meta": {"OBJECT_NAME": "COSMOS 2251 DEB", "OBJECT_ID": "1993-036ZA", "EPOCH": "2025-12-15T16:58:38.191872", "MEAN_MOTION": 14.47304319, "ECCENTRICITY": 0.00403541, "INCLINATION": 74.0456, "RA_OF_ASC_NODE": 87.6406, "ARG_OF_PERICENTER": 238.1126, "MEAN_ANOMALY": 273.699, "EPHEMERIS_TYPE": 0, "CLASSIFICATION_TYPE": "U", "NORAD_CAT_ID": 34732, "ELEMENT_SET_NO": 999, "REV_AT_EPOCH": 88186, "BSTAR": 0.00014575623, "MEAN_MOTION_DOT": 5.11e-06, "MEAN_MOTION_DDOT": 0}, "tle": {"line1": "1 34732U 93036ZA  25349.70738648  .00000511  00000+0  14576-3 0  9998", "line2": "2 34732  74.0456  87.6406 0040354 238.1126 273.6990 14.47304319881860"}}, "geometry": {"type": "Point", "coordinates": [72.14631907563111, -38.410756321865705]}}, {"type": "Feature", "properties": {"norad_id": 34736, "name": "COSMOS 2251 DEB", "group": "cosmos-2251-debris", "lat": -25.29463228315649, "lon": -145.30183759101098, "alt_km": 426.54829462223915, "timestamp": "2025-12-16T23:36:36.593073+00:00", "meta": {"OBJECT_NAME": "COSMOS 2251 DEB", "OBJECT_ID": "1993-036ZE", "EPOCH": "2025-12-16T08:47:21.584256", "MEAN_MOTION": 15.50665089, "ECCENTRICITY": 0.00164369, "INCLINATION": 74.0001, "RA_OF_ASC_NODE": 28.2634, "ARG_OF_PERICENTER": 343.2516, "MEAN_ANOMALY": 16.8152, "EPHEMERIS_TYPE": 0, "CLASSIFICATION_TYPE": "U", "NORAD_CAT_ID": 34736, "ELEMENT_SET_NO": 999, "REV_AT_EPOCH": 88504, "BSTAR": 0.0069420098, "MEAN_MOTION_DOT": 0.00422365, "MEAN_MOTION_DDOT": 0}, "tle": {"line1": "1 34736U 93036ZE  25350.36622204  .00422365  00000+0  69420-2 0  9998", "line2": "2 34736  74.0001  28.2634 0016436 343.2516  16.8152 15.50665089885049"}}, "geometry": {"type": "Point", "coordinates": [-145.30183759101098, -25.29463228315649]}}]}